STARLINK-37104          
1 68231U 26053AA  26093.27712876  .00146085  00000+0  74867-3 0  9994
2 68231  97.2848 328.8161 0001175 117.3885 242.7503 15.80875417  3941
STARLINK-37027          
1 68232U 26054A   26093.30180545  .00149049  00000+0  95867-3 0  9998
2 68232  53.1600 189.5312 0001334 105.7299 254.3869 15.75257496  2663
STARLINK-37132          
1 68233U 26054B   26093.28375924  .00562402  00000+0  26606-2 0  9999
2 68233  53.1588 189.4109 0001770 160.3273 199.7818 15.80963124  2669
STARLINK-37101          
1 68234U 26054C   26093.25001157  .00104744  00000+0  68236-3 0  9998
2 68234  53.1591 189.6857 0001418  96.7206  19.1759 15.75126142  3860
STARLINK-36963          
1 68235U 26054D   26093.29759262  .00130410  00000+0  84108-3 0  9995
2 68235  53.1597 189.5025 0001685 138.2294 221.8855 15.75259296  2661
STARLINK-37127          
1 68236U 26054E   26093.30666760  .00262635  00000+0  16593-2 0  9995
2 68236  53.1594 189.5628 0001247 101.4500 258.6660 15.75314421  2668
STARLINK-37095          
1 68237U 26054F   26093.30212844  .00201618  00000+0  12858-2 0  9990
2 68237  53.1599 189.5329 0001690 142.9182 217.1956 15.75284359  2664
STARLINK-37097          
1 68238U 26054G   26093.27999998  .00209780  00000+0  10389-2 0  9994
2 68238  53.1581 189.3854 0001153  96.7769 263.3385 15.80911571  2666
STARLINK-37096          
1 68239U 26054H   26093.27850583  .00190376  00000+0  94524-3 0  9995
2 68239  53.1583 189.3760 0001225  68.8228 291.2925 15.80912651  2665
STARLINK-37092          
1 68240U 26054J   26091.76208392  .00443187  00000+0  21526-2 0  9996
2 68240  53.1592 196.9847 0000901 264.3006  95.7914 15.80699611  2421
STARLINK-37094          
1 68241U 26054K   26093.27775615  .00224609  00000+0  11142-2 0  9991
2 68241  53.1588 189.3703 0001766 144.2318 215.8824 15.80833987  2663
STARLINK-36356          
1 68242U 26054L   26093.25001157  .00244517  00000+0  15646-2 0  9996
2 68242  53.1590 189.6282 0001058  84.0045  59.5184 15.75075673  3908
STARLINK-36345          
1 68243U 26054M   26093.29726648  .00129877  00000+0  83815-3 0  9995
2 68243  53.1600 189.4996 0001372  88.0190 272.0987 15.75247684  2663
STARLINK-36310          
1 68244U 26054N   26093.27475403  .00198568  00000+0  98512-3 0  9997
2 68244  53.1592 189.3505 0001007  83.0940 277.0197 15.80905967  2661
STARLINK-36247          
1 68245U 26054P   26093.27549941  .00256057  00000+0  12619-2 0  9998
2 68245  53.1592 189.3551 0000974  91.3747 268.7388 15.80888383  2663
STARLINK-37043          
1 68246U 26054Q   26093.27399990  .00152694  00000+0  76206-3 0  9991
2 68246  53.1584 189.3448 0001596  46.6770 313.4386 15.80915170  2661
